KUZGTU 1 (RS47S)        
1 57217U 23091AV  26159.26893104  .00011107  00000+0  38821-3 0  9997
2 57217  97.5065 223.6594 0012306 125.4727 234.7663 15.29654782163018
SONATE-2                
1 59112U 24043Q   26159.14874298  .00035468  00000+0  47245-3 0  9997
2 59112  97.5526 308.9962 0006656 226.5634 133.5068 15.58042281126485
MESAT1                  
1 60209U 24125G   26159.14155866  .00048785  00000+0  55240-3 0  9990
2 60209  97.2313  16.4235 0008757 240.2102 119.8286 15.62232780108159
OOV-CUBE (TUBSAT-30)    
1 60240U 24128F   26159.00606001  .00002948  00000+0  23033-3 0  9991
2 60240  61.9951 257.5861 0045782 131.6813 228.8211 15.02735598104732
COLIBRI-S (RS67S)       
1 61746U 24199M   26159.26793016  .00018387  00000+0  36095-3 0  9998
2 61746  97.3007  33.0428 0006588 321.2305  38.8471 15.47354023136033
HORS 3 (RS81S)          
1 61753U 24199U   26159.27151168  .00030944  00000+0  47274-3 0  9997
2 61753  97.2990  34.9383 0004346 330.5840  29.5168 15.54356616136171
HORS 4 (RS82S)          
1 61754U 24199V   26159.25839748  .00043287  00000+0  55903-3 0  9995
2 61754  97.2937  36.0700 0003233 319.4307  40.6708 15.58846554136259
ARCTICSAT 1 (RS74S)     
1 61762U 24199AD  26158.91177256  .01015373  58519-3  12929-2 0  9993
2 61762  97.2849  42.4330 0007563 203.5095 156.5843 16.07470356136634
SIT-2086                
1 61764U 24199AF  26159.23892153  .00031338  00000+0  51244-3 0  9991
2 61764  97.2947  35.4130 0004524 301.8552  58.2260 15.52466819133040
HYPERVIEW 1G (RS66S)    
1 61772U 24199AP  26159.16592001  .00109006  00000+0  77566-3 0  9994
2 61772  97.2894  38.4436 0002101 281.0912  79.0116 15.73530099133259
ALTAIR (RS65S)          
1 61779U 24199AW  26159.25752596  .00009929  00000+0  27723-3 0  9991
2 61779  97.3042  28.6679 0012019 346.6097  13.4826 15.36847933135746
ASRTU-1 (AO-123)        
1 61781U 24199AY  26159.23769600  .00006971  00000+0  20356-3 0  9995
2 61781  97.3013  27.9894 0013242 348.6531  11.4412 15.35546319132550
SAMSAT-IONOSPHERE (RS7*)
1 61784U 24199BB  26159.25598962  .00042478  00000+0  59077-3 0  9995
2 61784  97.2959  34.9377 0006321 323.1808  36.9012 15.56845833136176
RTU MIREA 1 (RS51S)     
1 61785U 24199BC  26159.23553745  .00046310  00000+0  56954-3 0  9994
2 61785  97.2946  35.7039 0005751 317.3520  42.7290 15.60113343133077
TEVEL2-4                
1 63213U 25052D   26158.66121393  .00020438  00000+0  61719-3 0  9995
2 63213  97.3922  55.0407 0004354 120.1889 239.9786 15.34277122 68658
TEVEL2-5                
1 63214U 25052E   26158.68065787  .00020067  00000+0  60926-3 0  9999
2 63214  97.3908  55.0087 0004329 122.9986 237.1673 15.34110180 68652
TEVEL2-6                
1 63215U 25052F   26159.21458766  .00015702  00000+0  47787-3 0  9993
2 63215  97.3912  55.5275 0004415 121.5489 238.6185 15.34088018 68738
TEVEL2-1                
1 63217U 25052H   26159.24053253  .00015233  00000+0  47132-3 0  9993
2 63217  97.3889  55.1881 0004189 130.0273 230.1338 15.33568729 68723
TEVEL2-3                
1 63218U 25052J   26159.23549191  .00015170  00000+0  46859-3 0  9999
2 63218  97.3889  55.2041 0004278 131.4338 228.7273 15.33621807 68727
TEVEL2-2                
1 63219U 25052K   26159.17564551  .00015378  00000+0  47571-3 0  9992
2 63219  97.3886  55.1258 0004196 132.1284 228.0316 15.33574364 68716
TEVEL2-9                
1 63237U 25052AD  26159.20683055  .00013734  00000+0  45172-3 0  9996
2 63237  97.3948  54.5513 0006908 156.1696 203.9867 15.31621079 68658
TEVEL2-7                
1 63238U 25052AE  26159.24603484  .00013747  00000+0  45614-3 0  9994
2 63238  97.3948  54.5102 0007004 156.9865 203.1691 15.31335451 68650
TEVEL2-8                
1 63239U 25052AF  26158.66608190  .00016862  00000+0  55924-3 0  9995
2 63239  97.3959  53.9116 0007087 159.3997 200.7532 15.31303224 68565
INNOSAT 16 (RS92S7)     
1 64878U 25155C   26159.27747084  .00005263  00000+0  21131-3 0  9999
2 64878  97.4558 126.4344 0009480 207.7325 152.3409 15.25362480 79314
GEOSCAN 6 (RS92S6)      
1 64879U 25155D   26159.28735719  .00008786  00000+0  30508-3 0  9994
2 64879  97.4552 127.8060 0007146 192.9569 167.1489 15.29983873 79402
GEOSCAN 1 (RS92S1)      
1 64880U 25155E   26159.22784930  .00009099  00000+0  31026-3 0  9993
2 64880  97.4548 127.8867 0007071 192.8292 167.2770 15.30564895 79408
239ALFEROV (RS61S)      
1 64881U 25155F   26159.27541775  .00012072  00000+0  38436-3 0  9994
2 64881  97.4549 128.4662 0006739 189.0318 171.0804 15.32700765 79442
GEOSCAN 2 (RS92S2)      
1 64890U 25155Q   26159.28848653  .00009414  00000+0  31823-3 0  9999
2 64890  97.4548 128.0965 0006954 177.6991 182.4283 15.30838136 79429
GEOSCAN 5 (RS92S5)      
1 64891U 25155R   26159.26629188  .00012237  00000+0  38580-3 0  9992
2 64891  97.4541 128.5912 0005418 192.0535 168.0579 15.33018860 79457
GEOSCAN 4 (RS92S4)      
1 64892U 25155S   26159.25136449  .00012482  00000+0  39164-3 0  9996
2 64892  97.4545 128.6220 0005479 192.5840 167.5267 15.33168056 79457
