OBJECT_NAME,OBJECT_ID,EPOCH,MEAN_MOTION,ECCENTRICITY,INCLINATION,RA_OF_ASC_NODE,ARG_OF_PERICENTER,MEAN_ANOMALY,EPHEMERIS_TYPE,CLASSIFICATION_TYPE,NORAD_CAT_ID,ELEMENT_SET_NO,REV_AT_EPOCH,BSTAR,MEAN_MOTION_DOT,MEAN_MOTION_DDOT
KUZGTU 1 (RS47S),2023-091AV,2026-06-08T06:27:15.641856,15.29654782,.00123062,97.5065,223.6594,125.4727,234.7663,0,U,57217,999,16301,.38821416E-3,.11107E-3,0
SONATE-2,2024-043Q,2026-06-08T03:34:11.393472,15.58042281,.00066569,97.5526,308.9962,226.5634,133.5068,0,U,59112,999,12648,.47244804E-3,.35468E-3,0
MESAT1,2024-125G,2026-06-08T03:23:50.668224,15.62232780,.00087571,97.2313,16.4235,240.2102,119.8286,0,U,60209,999,10815,.55239818E-3,.48785E-3,0
OOV-CUBE (TUBSAT-30),2024-128F,2026-06-08T00:08:43.584864,15.02735598,.00457829,61.9951,257.5861,131.6813,228.8211,0,U,60240,999,10473,.23032823E-3,.2948E-4,0
COLIBRI-S (RS67S),2024-199M,2026-06-08T06:25:49.165824,15.47354023,.00065882,97.3007,33.0428,321.2305,38.8471,0,U,61746,999,13603,.36094521E-3,.18387E-3,0
HORS 3 (RS81S),2024-199U,2026-06-08T06:30:58.609152,15.54356616,.00043461,97.2990,34.9383,330.5840,29.5168,0,U,61753,999,13617,.47274321E-3,.30944E-3,0
HORS 4 (RS82S),2024-199V,2026-06-08T06:12:05.542272,15.58846554,.00032333,97.2937,36.0700,319.4307,40.6708,0,U,61754,999,13625,.5590255E-3,.43287E-3,0
ARCTICSAT 1 (RS74S),2024-199AD,2026-06-07T21:52:57.149184,16.07470356,.00075639,97.2849,42.4330,203.5095,156.5843,0,U,61762,999,13663,.12929037E-2,.1015373E-1,.58519134E-3
SIT-2086,2024-199AF,2026-06-08T05:44:02.820192,15.52466819,.00045247,97.2947,35.4130,301.8552,58.2260,0,U,61764,999,13304,.5124368E-3,.31338E-3,0
HYPERVIEW 1G (RS66S),2024-199AP,2026-06-08T03:58:55.488864,15.73530099,.0002101,97.2894,38.4436,281.0912,79.0116,0,U,61772,999,13325,.77566366E-3,.109006E-2,0
ALTAIR (RS65S),2024-199AW,2026-06-08T06:10:50.242944,15.36847933,.00120192,97.3042,28.6679,346.6097,13.4826,0,U,61779,999,13574,.27722608E-3,.9929E-4,0
ASRTU-1 (AO-123),2024-199AY,2026-06-08T05:42:16.934400,15.35546319,.00132428,97.3013,27.9894,348.6531,11.4412,0,U,61781,999,13255,.20356383E-3,.6971E-4,0
SAMSAT-IONOSPHERE (RS75S),2024-199BB,2026-06-08T06:08:37.503168,15.56845833,.00063217,97.2959,34.9377,323.1808,36.9012,0,U,61784,999,13617,.59076943E-3,.42478E-3,0
RTU MIREA 1 (RS51S),2024-199BC,2026-06-08T05:39:10.435680,15.60113343,.00057513,97.2946,35.7039,317.3520,42.7290,0,U,61785,999,13307,.5695416E-3,.4631E-3,0
TEVEL2-4,2025-052D,2026-06-07T15:52:08.883552,15.34277122,.00043543,97.3922,55.0407,120.1889,239.9786,0,U,63213,999,6865,.6171933E-3,.20438E-3,0
TEVEL2-5,2025-052E,2026-06-07T16:20:08.839968,15.34110180,.00043296,97.3908,55.0087,122.9986,237.1673,0,U,63214,999,6865,.60926407E-3,.20067E-3,0
TEVEL2-6,2025-052F,2026-06-08T05:09:00.373824,15.34088018,.0004415,97.3912,55.5275,121.5489,238.6185,0,U,63215,999,6873,.47786553E-3,.15702E-3,0
TEVEL2-1,2025-052H,2026-06-08T05:46:22.010592,15.33568729,.00041892,97.3889,55.1881,130.0273,230.1338,0,U,63217,999,6872,.47131926E-3,.15233E-3,0
TEVEL2-3,2025-052J,2026-06-08T05:39:06.501024,15.33621807,.00042787,97.3889,55.2041,131.4338,228.7273,0,U,63218,999,6872,.46858956E-3,.1517E-3,0
TEVEL2-2,2025-052K,2026-06-08T04:12:55.772064,15.33574364,.00041967,97.3886,55.1258,132.1284,228.0316,0,U,63219,999,6871,.47570709E-3,.15378E-3,0
TEVEL2-9,2025-052AD,2026-06-08T04:57:50.159520,15.31621079,.00069086,97.3948,54.5513,156.1696,203.9867,0,U,63237,999,6865,.45171742E-3,.13734E-3,0
TEVEL2-7,2025-052AE,2026-06-08T05:54:17.410176,15.31335451,.00070046,97.3948,54.5102,156.9865,203.1691,0,U,63238,999,6865,.45613902E-3,.13747E-3,0
TEVEL2-8,2025-052AF,2026-06-07T15:59:09.476160,15.31303224,.00070879,97.3959,53.9116,159.3997,200.7532,0,U,63239,999,6856,.55923697E-3,.16862E-3,0
INNOSAT 16 (RS92S7),2025-155C,2026-06-08T06:39:33.480576,15.25362480,.000948,97.4558,126.4344,207.7325,152.3409,0,U,64878,999,7931,.21130919E-3,.5263E-4,0
GEOSCAN 6 (RS92S6),2025-155D,2026-06-08T06:53:47.661216,15.29983873,.0007146,97.4552,127.8060,192.9569,167.1489,0,U,64879,999,7940,.30508341E-3,.8786E-4,0
GEOSCAN 1 (RS92S1),2025-155E,2026-06-08T05:28:06.179520,15.30564895,.00070719,97.4548,127.8867,192.8292,167.2770,0,U,64880,999,7940,.3102633E-3,.9099E-4,0
239ALFEROV (RS61S),2025-155F,2026-06-08T06:36:36.093600,15.32700765,.00067395,97.4549,128.4662,189.0318,171.0804,0,U,64881,999,7944,.38436188E-3,.12072E-3,0
GEOSCAN 2 (RS92S2),2025-155Q,2026-06-08T06:55:25.236192,15.30838136,.0006954,97.4548,128.0965,177.6991,182.4283,0,U,64890,999,7942,.31822716E-3,.9414E-4,0
GEOSCAN 5 (RS92S5),2025-155R,2026-06-08T06:23:27.618432,15.33018860,.00054188,97.4541,128.5912,192.0535,168.0579,0,U,64891,999,7945,.38580416E-3,.12237E-3,0
GEOSCAN 4 (RS92S4),2025-155S,2026-06-08T06:01:57.891936,15.33168056,.00054795,97.4545,128.6220,192.5840,167.5267,0,U,64892,999,7945,.3916369E-3,.12482E-3,0
